{
  "type": "FeatureCollection",
  "features": [
    {
      "type": "Feature",
      "properties": {
        "norad_id": 34765,
        "name": "IRIDIUM 33 DEB",
        "group": "iridium-33-debris",
        "lat": -54.871406787077255,
        "lon": -147.02310848154784,
        "alt_km": 758.6033889109158,
        "timestamp": "2025-12-24T09:46:31.389433+00:00",
        "meta_object_name": "IRIDIUM 33 DEB",
        "meta_object_id": "1997-051LJ",
        "meta_epoch": "2025-12-23T02:58:27.844896",
        "meta_mean_motion": 14.40490027,
        "meta_eccentricity": 0.00166531,
        "meta_inclination": 86.3383,
        "meta_ra_of_asc_node": 28.3053,
        "meta_arg_of_pericenter": 176.053,
        "meta_mean_anomaly": 247.6854,
        "meta_ephemeris_type": 0,
        "meta_classification_type": "U",
        "meta_norad_cat_id": 34765,
        "meta_element_set_no": 999,
        "meta_rev_at_epoch": 87763,
        "meta_bstar": 0.00035770807,
        "meta_mean_motion_dot": 1.159e-05,
        "meta_mean_motion_ddot": 0,
        "tle_line1": "1 34765U 97051LJ  25357.12393339  .00001159  00000+0  35771-3 0  9993",
        "tle_line2": "2 34765  86.3383  28.3053 0016653 176.0530 247.6854 14.40490027877630"
      },
      "geometry": {
        "type": "Point",
        "coordinates": [
          -147.02310848154784,
          -54.871406787077255
        ]
      }
    },
    {
      "type": "Feature",
      "properties": {
        "norad_id": 34833,
        "name": "IRIDIUM 33 DEB",
        "group": "iridium-33-debris",
        "lat": 58.85505590476655,
        "lon": -140.0283426775167,
        "alt_km": 704.1095923029688,
        "timestamp": "2025-12-24T09:46:31.389446+00:00",
        "meta_object_name": "IRIDIUM 33 DEB",
        "meta_object_id": "1997-051MH",
        "meta_epoch": "2025-12-24T02:45:06.846048",
        "meta_mean_motion": 14.52439101,
        "meta_eccentricity": 0.0021279,
        "meta_inclination": 86.392,
        "meta_ra_of_asc_node": 46.091,
        "meta_arg_of_pericenter": 63.6872,
        "meta_mean_anomaly": 327.8102,
        "meta_ephemeris_type": 0,
        "meta_classification_type": "U",
        "meta_norad_cat_id": 34833,
        "meta_element_set_no": 999,
        "meta_rev_at_epoch": 87880,
        "meta_bstar": 0.00070605,
        "meta_mean_motion_dot": 2.906e-05,
        "meta_mean_motion_ddot": 0,
        "tle_line1": "1 34833U 97051MH  25358.11466257  .00002906  00000+0  70605-3 0  9995",
        "tle_line2": "2 34833  86.3920  46.0910 0021279  63.6872 327.8102 14.52439101878808"
      },
      "geometry": {
        "type": "Point",
        "coordinates": [
          -140.0283426775167,
          58.85505590476655
        ]
      }
    },
    {
      "type": "Feature",
      "properties": {
        "norad_id": 34870,
        "name": "IRIDIUM 33 DEB",
        "group": "iridium-33-debris",
        "lat": 24.405346350835313,
        "lon": -49.583165837686764,
        "alt_km": 645.0398425817566,
        "timestamp": "2025-12-24T09:46:31.389457+00:00",
        "meta_object_name": "IRIDIUM 33 DEB",
        "meta_object_id": "1997-051MQ",
        "meta_epoch": "2025-12-23T08:19:45.742080",
        "meta_mean_motion": 14.76622779,
        "meta_eccentricity": 0.0017813,
        "meta_inclination": 86.3116,
        "meta_ra_of_asc_node": 309.2251,
        "meta_arg_of_pericenter": 145.0656,
        "meta_mean_anomaly": 7.2154,
        "meta_ephemeris_type": 0,
        "meta_classification_type": "U",
        "meta_norad_cat_id": 34870,
        "meta_element_set_no": 999,
        "meta_rev_at_epoch": 89067,
        "meta_bstar": 0.0014825,
        "meta_mean_motion_dot": 0.0001041,
        "meta_mean_motion_ddot": 0,
        "tle_line1": "1 34870U 97051MQ  25357.34705720  .00010410  00000+0  14825-2 0  9991",
        "tle_line2": "2 34870  86.3116 309.2251 0017813 145.0656   7.2154 14.76622779890678"
      },
      "geometry": {
        "type": "Point",
        "coordinates": [
          -49.583165837686764,
          24.405346350835313
        ]
      }
    },
    {
      "type": "Feature",
      "properties": {
        "norad_id": 34896,
        "name": "IRIDIUM 33 DEB",
        "group": "iridium-33-debris",
        "lat": 22.15858370251213,
        "lon": 139.95372710712257,
        "alt_km": 654.9467123037075,
        "timestamp": "2025-12-24T09:46:31.389467+00:00",
        "meta_object_name": "IRIDIUM 33 DEB",
        "meta_object_id": "1997-051MY",
        "meta_epoch": "2025-12-24T04:12:44.287776",
        "meta_mean_motion": 14.66381714,
        "meta_eccentricity": 0.0025729,
        "meta_inclination": 86.3299,
        "meta_ra_of_asc_node": 321.5555,
        "meta_arg_of_pericenter": 173.6101,
        "meta_mean_anomaly": 201.3064,
        "meta_ephemeris_type": 0,
        "meta_classification_type": "U",
        "meta_norad_cat_id": 34896,
        "meta_element_set_no": 999,
        "meta_rev_at_epoch": 87787,
        "meta_bstar": 0.00093038,
        "meta_mean_motion_dot": 5.188e-05,
        "meta_mean_motion_ddot": 0,
        "tle_line1": "1 34896U 97051MY  25358.17551259  .00005188  00000+0  93038-3 0  9997",
        "tle_line2": "2 34896  86.3299 321.5555 0025729 173.6101 201.3064 14.66381714877873"
      },
      "geometry": {
        "type": "Point",
        "coordinates": [
          139.95372710712257,
          22.15858370251213
        ]
      }
    },
    {
      "type": "Feature",
      "properties": {
        "norad_id": 34926,
        "name": "IRIDIUM 33 DEB",
        "group": "iridium-33-debris",
        "lat": 64.81023153281119,
        "lon": 174.58989426166895,
        "alt_km": 742.1821559342479,
        "timestamp": "2025-12-24T09:46:31.389478+00:00",
        "meta_object_name": "IRIDIUM 33 DEB",
        "meta_object_id": "1997-051NF",
        "meta_epoch": "2025-12-22T01:22:31.159776",
        "meta_mean_motion": 14.5480682,
        "meta_eccentricity": 0.00744191,
        "meta_inclination": 86.1317,
        "meta_ra_of_asc_node": 3.9511,
        "meta_arg_of_pericenter": 260.4851,
        "meta_mean_anomaly": 154.6666,
        "meta_ephemeris_type": 0,
        "meta_classification_type": "U",
        "meta_norad_cat_id": 34926,
        "meta_element_set_no": 999,
        "meta_rev_at_epoch": 86592,
        "meta_bstar": 0.0057923661,
        "meta_mean_motion_dot": 0.00025863,
        "meta_mean_motion_ddot": 0,
        "tle_line1": "1 34926U 97051NF  25356.05730509  .00025863  00000+0  57924-2 0  9998",
        "tle_line2": "2 34926  86.1317   3.9511 0074419 260.4851 154.6666 14.54806820865924"
      },
      "geometry": {
        "type": "Point",
        "coordinates": [
          174.58989426166895,
          64.81023153281119
        ]
      }
    },
    {
      "type": "Feature",
      "properties": {
        "norad_id": 34985,
        "name": "IRIDIUM 33 DEB",
        "group": "iridium-33-debris",
        "lat": 69.63088688368599,
        "lon": 61.75095332352844,
        "alt_km": 750.6009242101045,
        "timestamp": "2025-12-24T09:46:31.389488+00:00",
        "meta_object_name": "IRIDIUM 33 DEB",
        "meta_object_id": "1997-051NR",
        "meta_epoch": "2025-12-24T02:55:34.002048",
        "meta_mean_motion": 14.42055035,
        "meta_eccentricity": 0.0021983,
        "meta_inclination": 86.3683,
        "meta_ra_of_asc_node": 52.0233,
        "meta_arg_of_pericenter": 181.7757,
        "meta_mean_anomaly": 207.8288,
        "meta_ephemeris_type": 0,
        "meta_classification_type": "U",
        "meta_norad_cat_id": 34985,
        "meta_element_set_no": 999,
        "meta_rev_at_epoch": 87339,
        "meta_bstar": 0.00064439,
        "meta_mean_motion_dot": 2.141e-05,
        "meta_mean_motion_ddot": 0,
        "tle_line1": "1 34985U 97051NR  25358.12192132  .00002141  00000+0  64439-3 0  9991",
        "tle_line2": "2 34985  86.3683  52.0233 0021983 181.7757 207.8288 14.42055035873393"
      },
      "geometry": {
        "type": "Point",
        "coordinates": [
          61.75095332352844,
          69.63088688368599
        ]
      }
    },
    {
      "type": "Feature",
      "properties": {
        "norad_id": 35051,
        "name": "IRIDIUM 33 DEB",
        "group": "iridium-33-debris",
        "lat": -57.28137718367819,
        "lon": -170.48021470735617,
        "alt_km": 747.8486474442407,
        "timestamp": "2025-12-24T09:46:31.389498+00:00",
        "meta_object_name": "IRIDIUM 33 DEB",
        "meta_object_id": "1997-051NX",
        "meta_epoch": "2025-12-22T18:31:37.744896",
        "meta_mean_motion": 14.47639956,
        "meta_eccentricity": 0.0010302,
        "meta_inclination": 86.324,
        "meta_ra_of_asc_node": 4.4893,
        "meta_arg_of_pericenter": 63.2582,
        "meta_mean_anomaly": 296.9674,
        "meta_ephemeris_type": 0,
        "meta_classification_type": "U",
        "meta_norad_cat_id": 35051,
        "meta_element_set_no": 999,
        "meta_rev_at_epoch": 87141,
        "meta_bstar": 0.00060447572,
        "meta_mean_motion_dot": 2.248e-05,
        "meta_mean_motion_ddot": 0,
        "tle_line1": "1 35051U 97051NX  25356.77196464  .00002248  00000+0  60448-3 0  9991",
        "tle_line2": "2 35051  86.3240   4.4893 0010302  63.2582 296.9674 14.47639956871417"
      },
      "geometry": {
        "type": "Point",
        "coordinates": [
          -170.48021470735617,
          -57.28137718367819
        ]
      }
    }
  ]
}